 * Orbital characteristics
| | |
|:---|---:|
| Epoch | 2451545 |
| Reference System | Equator |
| Apogee (m) | 601078664.446 |
| Perigee (m) | 576572201.554 |
| Semi-major axis (a) (m) | 588825433 |
| Eccentricity (e) | 0.0208096165 |
| Orbital period (sidereal) (P) (s) | 977966.75808 |
| Mean anomaly | 160.700921 |
| Inclination (i) | -0.731935695 |
| Longitude of ascending node (Ω) | 252.11239 |
| Argument of perigee (ω) | 335.579372 |
 * Physical characteristics
| | |
|:---|---:|
| Mean radius (m) | 1024300 |
| Flattening | 0 |
| Volume (m^3) | 4.50163343146e+18 |
| Mass (Kg) | 2.0039616435e+22 |
| Mean density (Kg/m^3) | 4451.63222197 |
| Surface gravity (m/s^2) | 1.27479626671 |
| Escape velocity (m/s) | 1616.02835123 |
| Synodic rotation period (s) | inf |
| Sidereal rotation period (s) | 977966.75808 |
| Axial tilt | -0.73194 |
| Albedo (Bond) | 0.3 |
| Albedo (geometric) | 0.36 |
 * Surface temperature (Approximate value, only for reference)
| Min | Mean | Max |
|:---:|:---:|:---:|
| 224.192220687 | 234.031079153 | 245.290478501 |

### Lunalus III - Rocky planet

 * Orbital characteristics
| | |
|:---|---:|
| Epoch | 2451545 |
| Reference System | Equator |
| Apogee (m) | 871474124.265 |
| Perigee (m) | 859647323.735 |
| Semi-major axis (a) (m) | 865560724 |
| Eccentricity (e) | 0.00683187222 |
| Orbital period (sidereal) (P) (s) | 1743083.08128 |
| Mean anomaly | 153.252925 |
| Inclination (i) | 0.159500759 |
| Longitude of ascending node (Ω) | 123.717316 |
| Argument of perigee (ω) | 125.797559 |
 * Physical characteristics
| | |
|:---|---:|
| Mean radius (m) | 604960 |
| Flattening | 0 |
| Volume (m^3) | 9.2740319843e+17 |
| Mass (Kg) | 4.040770222e+21 |
| Mean density (Kg/m^3) | 4357.08031722 |
| Surface gravity (m/s^2) | 0.736913577939 |
| Escape velocity (m/s) | 944.249160031 |
| Synodic rotation period (s) | inf |
| Sidereal rotation period (s) | 1743083.08128 |
| Axial tilt | 0.1595 |
| Albedo (Bond) | 0.3 |
| Albedo (geometric) | 0.36 |
 * Surface temperature (Approximate value, only for reference)
| Min | Mean | Max |
|:---:|:---:|:---:|
| 224.192220687 | 234.031079153 | 245.290478501 |

### Lunalus IV - Rocky planet

 * Orbital characteristics
| | |
|:---|---:|
| Epoch | 2451545 |
| Reference System | Equator |
| Apogee (m) | 1234864730.94 |
| Perigee (m) | 1230545729.06 |
| Semi-major axis (a) (m) | 1232705230 |
| Eccentricity (e) | 0.00175183887 |
| Orbital period (sidereal) (P) (s) | 2962543.17888 |
| Mean anomaly | 291.807434 |
| Inclination (i) | -0.0392513592 |
| Longitude of ascending node (Ω) | 88.8885794 |
| Argument of perigee (ω) | 51.7056353 |
 * Physical characteristics
| | |
|:---|---:|
| Mean radius (m) | 452560 |
| Flattening | 0 |
| Volume (m^3) | 3.88255043949e+17 |
| Mass (Kg) | 1.6823005673e+21 |
| Mean density (Kg/m^3) | 4332.97800897 |
| Surface gravity (m/s^2) | 0.548222661331 |
| Escape velocity (m/s) | 704.419828812 |
| Synodic rotation period (s) | 372864.425812 |
| Sidereal rotation period (s) | 331182 |
| Axial tilt | -0.039251 |
| Albedo (Bond) | 0.3 |
| Albedo (geometric) | 0.36 |
 * Surface temperature (Approximate value, only for reference)
| Min | Mean | Max |
|:---:|:---:|:---:|
| 224.192220687 | 234.031079153 | 245.290478501 |

### Lunalus V - Rocky planet

 * Orbital characteristics
| | |
|:---|---:|
| Epoch | 2451545 |
| Reference System | Equator |
| Apogee (m) | 1664747150.15 |
| Perigee (m) | 1622915269.85 |
| Semi-major axis (a) (m) | 1643831210 |
| Eccentricity (e) | 0.0127238977 |
| Orbital period (sidereal) (P) (s) | 4561938.9648 |
| Mean anomaly | 352.787069 |
| Inclination (i) | 0.352396689 |
| Longitude of ascending node (Ω) | 227.70398 |
| Argument of perigee (ω) | 175.440955 |
 * Physical characteristics
| | |
|:---|---:|
| Mean radius (m) | 781458.244621 |
| Equatorial radius (m) | 781720 |
| Polar radius (m) | 780934.996776 |
| Flattening | 0.0010042 |
| Volume (m^3) | 1.99896845958e+18 |
| Mass (Kg) | 8.774312164e+21 |
| Mean density (Kg/m^3) | 4389.42001409 |
| Surface gravity (m/s^2) | 0.958332812341 |
| Escape velocity (m/s) | 1224.04895822 |
| Synodic rotation period (s) | 209022.355963 |
| Sidereal rotation period (s) | 199864.8 |
| Axial tilt | 0.3524 |
| Albedo (Bond) | 0.3 |
| Albedo (geometric) | 0.36 |
 * Surface temperature (Approximate value, only for reference)
| Min | Mean | Max |
|:---:|:---:|:---:|
| 224.192220687 | 234.031079153 | 245.290478501 |

### Runandor - Rocky planet

 * Orbital characteristics
| | |
|:---|---:|
| Epoch | 2451545 |
| Reference System | Ecliptic |
| Aphelion (m) | 1.38886992924e+13 |
| Perihelion (m) | 1.38373780269e+13 |
| Semi-major axis (a) (m) | 1.38630386597e+13 |
| Eccentricity (e) | 0.00185101069 |
| Orbital period (sidereal) (P) (s) | 8902144881.95 |
| Mean anomaly | 241.110849 |
| Inclination (i) | 136.998225 |
| Longitude of ascending node (Ω) | 189.295041 |
| Argument of perihelion (ω) | 118.950014 |
 * Physical characteristics
| | |
|:---|---:|
| Mean radius (m) | 9211700 |
| Flattening | 0 |
| Volume (m^3) | 3.27422082565e+21 |
| Mass (Kg) | 1.9778632606e+25 |
| Mean density (Kg/m^3) | 6040.71431317 |
| Surface gravity (m/s^2) | 15.5568769137 |
| Escape velocity (m/s) | 16929.5766673 |
| Synodic rotation period (s) | 367791.194627 |
| Sidereal rotation period (s) | 367776 |
| Axial tilt | -72.524 |
| Albedo (Bond) | 0.3 |
| Albedo (geometric) | 0.36 |
 * Surface temperature (Approximate value, only for reference)
| Min | Mean | Max |
|:---:|:---:|:---:|
| 259.627356744 | 259.83720257 | 260.047631847 |
 * Atmosphere
| | |
|:---|:---|
| Surface pressure (Pa) | 3808401.45 |
| Composition by volume | 0.00013366% Ar |
|  | 8.4737e-05% C2H2 |
|  | 3.3204% C2H4 |
|  | 5.9872% C2H6 |
|  | 0.0046027% C3H8 |
|  | 0.089751% CH4 |
|  | 0.23732% CO |
|  | 14.64% CO2 |
|  | 0.0002494% Cl2 |
|  | 8.0313% H2O |
|  | 2.1589% H2S |
|  | 0.00045296% He |
|  | 35.453% N2 |
|  | 0.012124% NH3 |
|  | 0.6434% Ne |
|  | 29.421% O2 |
 * Ocean
| | |
|:---|:---|
| Depth (m) | 2961.2 |
| Composition by volume | 100% H2O |
 * Satellites
| Name | Diameter(m) | Mass(Kg) | Semi-Major Axis(m) | Orbital Period(s) | Inclination | Eccentricity |
|:---|:---|:---|:---|:---|:---|:---|
| Runandor R|2023 R 2 | 895.324557776 (905.32 × 885.40296 × 895.36148) | 1.1328609273e+12 | 14211375.7 | 9264.3273504 | 0 | 0 |
| Runandor R|2023 R 1 | 705.615805285 (721.6 × 691.2928 × 704.2816) | 506410155150 | 14966334.6 | 10012.2776352 | 0 | 0 |
| Runandor I | 2910836.28808 (2912000 × 2908510.2592) | 5.853323817e+22 | 100000000 | 172670.46048 | -1.74274855 | 0.0713673437 |

### Runandor I - Rocky planet

 * Orbital characteristics
| | |
|:---|---:|
| Epoch | 2451545 |
| Reference System | Equator |
| Apogee (m) | 107136734.37 |
| Perigee (m) | 92863265.63 |
| Semi-major axis (a) (m) | 100000000 |
| Eccentricity (e) | 0.0713673437 |
| Orbital period (sidereal) (P) (s) | 172670.46048 |
| Mean anomaly | 313.067255 |
| Inclination (i) | -1.74274855 |
| Longitude of ascending node (Ω) | 30.0194301 |
| Argument of perigee (ω) | 270.921458 |
 * Physical characteristics
| | |
|:---|---:|
| Mean radius (m) | 1455418.14404 |
| Equatorial radius (m) | 1456000 |
| Polar radius (m) | 1454255.1296 |
| Flattening | 0.0011984 |
| Volume (m^3) | 1.29137377809e+19 |
| Mass (Kg) | 5.853323817e+22 |
| Mean density (Kg/m^3) | 4532.63332145 |
| Surface gravity (m/s^2) | 1.84283106432 |
| Escape velocity (m/s) | 2316.53276673 |
| Synodic rotation period (s) | inf |
| Sidereal rotation period (s) | 172670.46048 |
| Axial tilt | -1.7427 |
| Albedo (Bond) | 0.07 |
| Albedo (geometric) | 0.36 |
 * Surface temperature (Approximate value, only for reference)
| Min | Mean | Max |
|:---:|:---:|:---:|
| 243.53896907 | 243.764261481 | 243.99018029 |
 * Atmosphere
| | |
|:---|:---|
| Surface pressure (Pa) | 0.00220949295 |
| Composition by volume | 0.028344% C8H18 |
|  | 99.972% Xe |

### Barathos - Rocky planet

 * Orbital characteristics
| | |
|:---|---:|
| Epoch | 2451545 |
| Reference System | Ecliptic |
| Aphelion (m) | 1.46748670348e+13 |
| Perihelion (m) | 1.44718084795e+13 |
| Semi-major axis (a) (m) | 1.45733377572e+13 |
| Eccentricity (e) | 0.00696678272 |
| Orbital period (sidereal) (P) (s) | 9595016809.94 |
| Mean anomaly | 124.559253 |
| Inclination (i) | 96.1211858 |
| Longitude of ascending node (Ω) | 87.7958012 |
| Argument of perihelion (ω) | 104.204733 |
 * Physical characteristics
| | |
|:---|---:|
| Mean radius (m) | 4251900 |
| Flattening | 0 |
| Volume (m^3) | 3.21986553024e+20 |
| Mass (Kg) | 1.6397787169e+24 |
| Mean density (Kg/m^3) | 5092.69316218 |
| Surface gravity (m/s^2) | 6.05375562047 |
| Escape velocity (m/s) | 7174.95136188 |
| Synodic rotation period (s) | -322156.783085 |
| Sidereal rotation period (s) | -322167.6 |
| Axial tilt | 92.137 |
| Albedo (Bond) | 0.3 |
| Albedo (geometric) | 0.36 |
 * Surface temperature (Approximate value, only for reference)
| Min | Mean | Max |
|:---:|:---:|:---:|
| 400.681504545 | 401.448890358 | 402.22433765 |
 * Atmosphere
| | |
|:---|:---|
| Surface pressure (Pa) | 400061.4975 |
| Composition by volume | 0.00034964% Ar |
|  | 0.10956% C2H2 |
|  | 3.3292% C2H4 |
|  | 0.10466% C2H6 |
|  | 0.0063067% C3H8 |
|  | 7.7395% CH4 |
|  | 0.70163% CO |
|  | 77.473% CO2 |
|  | 3.4203e-05% Cl2 |
|  | 0.85864% H2 |
|  | 2.7163% H2O |
|  | 1.4514e-05% Kr |
|  | 6.3938% N2 |
|  | 0.03639% Ne |
|  | 3.0863e-05% O2 |
|  | 0.5303% SO2 |

### Deeplands - Rocky planet

